SL-16 R/B               
1 25400U 98043G   25360.76113064  .00000083  00000+0  53518-4 0  9995
2 25400  98.8146 308.6591 0009064 221.5634 138.4857 14.26028711428599
SL-16 R/B               
1 25407U 98045B   25360.96211494  .00000270  00000+0  16042-3 0  9990
2 25407  71.0122 334.5165 0006081 152.9198 207.2243 14.16179305416806
ISS (ZARYA)             
1 25544U 98067A   25360.85713459  .00014958  00000+0  27092-3 0  9997
2 25544  51.6319  72.5609 0003230 307.0606  53.0087 15.49855582545049
CZ-4B R/B               
1 25732U 99025C   25360.88108637  .00000070  00000+0  54749-4 0  9990
2 25732  98.6750  41.8435 0036940 192.7653 340.7322 14.18247098377840
OKEAN-O                 
1 25860U 99039A   25360.91812928  .00000853  00000+0  11915-3 0  9992
2 25860  97.9583  56.4959 0001191 114.7189 245.4147 14.80185571423629
SL-16 R/B               
1 25861U 99039B   25360.89961493  .00000742  00000+0  10107-3 0  9991
2 25861  98.0107  55.0506 0015878 130.5031 229.7568 14.81607012426081
DELTA 2 R/B             
1 25876U 99041E   25360.94608773  .00001548  00000+0  28819-3 0  9999
2 25876  51.7599 231.7347 0504389 133.6340 230.7588 14.11440325352752
HELIOS 1B               
1 25977U 99064A   25360.72970034  .00002429  00000+0  27546-3 0  9999
2 25977  98.1749 255.8107 0000881  31.4027 328.7241 14.87337991674413
TERRA                   
1 25994U 99068A   25360.92011505  .00000572  00000+0  12584-3 0  9996
2 25994  97.9729  52.0828 0003372  66.0590  38.4984 14.60917878384451
SL-16 R/B               
1 26070U 00006B   25360.95862215  .00000229  00000+0  14086-3 0  9999
2 26070  71.0011 250.7616 0018601 289.4102  70.5010 14.15809735338264
TITAN 4B R/B            
1 26474U 00047B   25360.92912854  .00004156  00000+0  26710-3 0  9994
2 26474  67.9887 245.0022 0037961 127.0711 233.3919 15.08883380381938
ENVISAT                 
1 27386U 02009A   25352.94754304  .00000081  00000+0  39999-4 0  9991
2 27386  98.3609 303.5309 0001126  84.8976 298.2993 14.39001403247569
